QIANFAN-60              
1 62790U 25016F   25231.55557872  .00000118  00000+0  16412-3 0  9991
2 62790  88.9801 114.9966 0014509 324.6018  35.4169 13.50960802 31678
QIANFAN-61              
1 62791U 25016G   25231.56809167  .00000093  00000+0  12499-3 0  9993
2 62791  88.9869 115.0748 0013921 323.4359  36.5840 13.50966502 31698
QIANFAN-62              
1 62792U 25016H   25231.57207898  .00000093  00000+0  12540-3 0  9995
2 62792  88.9815 115.0051 0015310 323.1232  36.8865 13.50960454 31687
QIANFAN-63              
1 62793U 25016J   25231.58447264  .00000089  00000+0  11969-3 0  9999
2 62793  88.9822 114.9447 0015272 327.9115  32.1105 13.50957492 31721
QIANFAN-64              
1 62794U 25016K   25231.57617824  .00000097  00000+0  13228-3 0  9999
2 62794  88.9809 114.9412 0012914 322.4526  37.5722 13.50960053 31715
QIANFAN-65              
1 62795U 25016L   25231.55980548  .00000113  00000+0  15630-3 0  9992
2 62795  88.9805 114.9700 0013152 324.3347  35.6925 13.50964052 31693
QIANFAN-66              
1 62796U 25016M   25231.58852233  .00000102  00000+0  14014-3 0  9998
2 62796  88.9824 114.9146 0014114 318.9917  41.0172 13.50959126 31747
QIANFAN-67              
1 62797U 25016N   25231.59266092  .00000102  00000+0  14005-3 0  9992
2 62797  88.9814 114.9510 0014322 326.2102  33.8135 13.50967832 31719
QIANFAN-68              
1 62798U 25016P   25231.59674366  .00000105  00000+0  14471-3 0  9990
2 62798  88.9817 114.9947 0014888 324.0988  35.9161 13.50965276 31691
QIANFAN-69              
1 62799U 25016Q   25231.60085459  .00000103  00000+0  14180-3 0  9997
2 62799  88.9796 114.8855 0015093 325.0333  34.9826 13.50960840 31733
QIANFAN-70              
1 62800U 25016R   25231.61734722  .00000104  00000+0  14277-3 0  9993
2 62800  88.9818 114.9978 0014359 315.0496  44.9492 13.50964708 31693
QIANFAN-71              
1 62801U 25016S   25231.61331462  .00000104  00000+0  14292-3 0  9995
2 62801  88.9812 114.9848 0015127 328.7141  31.3108 13.50964490 31698
QIANFAN-72              
1 62802U 25016T   25231.60909582  .00000091  00000+0  12307-3 0  9999
2 62802  88.9802 115.0050 0018747 334.0071  26.0137 13.50959848 31681
QIANFAN-73              
1 63159U 25046A   25231.50869539  .00000121  00000+0  16841-3 0  9995
2 63159  88.9864 331.9065 0017014  98.5594 261.7486 13.50963312 31853
QIANFAN-74              
1 63160U 25046B   25231.56627277  .00000148  00000+0  21127-3 0  9996
2 63160  88.9864 331.7891 0002012 108.1890 251.9480 13.50968516 31923
QIANFAN-75              
1 63161U 25046C   25231.55400904  .00000132  00000+0  18622-3 0  9991
2 63161  88.9865 332.0223 0018179 101.2203 259.0993 13.50964600 31794
QIANFAN-76              
1 63162U 25046D   25231.54976580  .00000140  00000+0  19761-3 0  9993
2 63162  88.9864 332.0039 0015752 102.0116 258.2802 13.50961310 31802
QIANFAN-77              
1 63163U 25046E   25231.57642294  .00000328  00000+0  22920-3 0  9998
2 63163  88.9861 330.9529 0016831  83.6867 276.6226 13.96018726 32389
QIANFAN-78              
1 63164U 25046F   25231.51694544  .00000138  00000+0  19483-3 0  9997
2 63164  88.9863 331.8725 0017135 104.0410 256.2648 13.50964441 31879
QIANFAN-79              
1 63165U 25046G   25231.54563654  .00000143  00000+0  20293-3 0  9995
2 63165  88.9867 331.9725 0016808 102.5052 257.7981 13.50966656 31827
QIANFAN-80              
1 63166U 25046H   25231.56220827  .00000139  00000+0  19682-3 0  9995
2 63166  88.9865 331.6810 0015813 106.3033 253.9859 13.50966607 31989
QIANFAN-81              
1 63167U 25046J   25231.54160981  .00000140  00000+0  19767-3 0  9994
2 63167  88.9864 331.7515 0016740  96.0853 264.2206 13.50965290 31930
QIANFAN-82              
1 63168U 25046K   25231.57442368  .00000142  00000+0  20146-3 0  9995
2 63168  88.9864 331.7917 0014941 103.1236 257.1583 13.50962250 31924
QIANFAN-83              
1 63169U 25046L   25231.57493888  .00000170  00000+0  20470-3 0  9990
2 63169  88.9864 331.7935 0016185  95.5290 264.7714 13.61937630 31927
QIANFAN-84              
1 63170U 25046M   25231.52913839  .00000151  00000+0  21538-3 0  9995
2 63170  88.9864 331.9294 0017886  99.7692 260.5480 13.50969630 31848
QIANFAN-85              
1 63171U 25046N   25231.52515505  .00000083  00000+0  10948-3 0  9991
2 63171  88.9864 331.8020 0015284 102.2900 257.9963 13.50962972 31913
QIANFAN-86              
1 63172U 25046P   25231.53337736  .00000146  00000+0  20804-3 0  9993
2 63172  88.9866 331.6606 0013187 106.1533 254.1071 13.50963673 31995
QIANFAN-87              
1 63173U 25046Q   25231.57856546  .00000143  00000+0  20323-3 0  9996
2 63173  88.9862 331.7719 0013873 101.6025 258.6684 13.50960411 31936
QIANFAN-88              
1 63174U 25046R   25231.52107375  .00000126  00000+0  17666-3 0  9998
2 63174  88.9864 331.7296 0014273 108.6034 251.6668 13.50967636 31954
QIANFAN-89              
1 63175U 25046S   25231.55798072  .00000135  00000+0  19040-3 0  9990
2 63175  88.9865 331.9148 0018560 100.0951 260.2295 13.50968453 31850
QIANFAN-90              
1 63176U 25046T   25231.51271642  .00000113  00000+0  15561-3 0  9996
2 63176  88.9865 331.8916 0015484  98.9236 261.3669 13.50967310 31865
